{
  "type": "FeatureCollection",
  "features": [
    {
      "type": "Feature",
      "properties": {
        "norad_id": 38709,
        "name": "EXACTVIEW-1 (ADS-1B)",
        "group": "resource",
        "lat": -24.647886326936604,
        "lon": -98.58527706397113,
        "alt_km": 822.3351240895081,
        "timestamp": "2025-12-03T08:58:45.656014+00:00",
        "meta_object_name": "EXACTVIEW-1 (ADS-1B)",
        "meta_object_id": "2012-039C",
        "meta_epoch": "2025-12-02T21:54:33.895584",
        "meta_mean_motion": 14.24901108,
        "meta_eccentricity": 0.0011168,
        "meta_inclination": 98.9635,
        "meta_ra_of_asc_node": 85.097,
        "meta_arg_of_pericenter": 22.2691,
        "meta_mean_anomaly": 337.897,
        "meta_ephemeris_type": 0,
        "meta_classification_type": "U",
        "meta_norad_cat_id": 38709,
        "meta_element_set_no": 999,
        "meta_rev_at_epoch": 69475,
        "meta_bstar": 0.00010398,
        "meta_mean_motion_dot": 1.97e-06,
        "meta_mean_motion_ddot": 0,
        "tle_line1": "1 38709U 12039C   25336.91289231  .00000197  00000+0  10398-3 0  9996",
        "tle_line2": "2 38709  98.9635  85.0970 0011168  22.2691 337.8970 14.24901108694755"
      },
      "geometry": {
        "type": "Point",
        "coordinates": [
          -98.58527706397113,
          -24.647886326936604
        ]
      }
    },
    {
      "type": "Feature",
      "properties": {
        "norad_id": 38755,
        "name": "SPOT 6",
        "group": "resource",
        "lat": 0.4242063489052024,
        "lon": -137.60861723116986,
        "alt_km": 700.5363375703273,
        "timestamp": "2025-12-03T08:58:45.656024+00:00",
        "meta_object_name": "SPOT 6",
        "meta_object_id": "2012-047A",
        "meta_epoch": "2025-12-03T04:51:59.414400",
        "meta_mean_motion": 14.58588102,
        "meta_eccentricity": 0.0001036,
        "meta_inclination": 98.1585,
        "meta_ra_of_asc_node": 42.1623,
        "meta_arg_of_pericenter": 100.0661,
        "meta_mean_anomaly": 260.0655,
        "meta_ephemeris_type": 0,
        "meta_classification_type": "U",
        "meta_norad_cat_id": 38755,
        "meta_element_set_no": 999,
        "meta_rev_at_epoch": 70448,
        "meta_bstar": 0.00013547,
        "meta_mean_motion_dot": 5.85e-06,
        "meta_mean_motion_ddot": 0,
        "tle_line1": "1 38755U 12047A   25337.20277100  .00000585  00000+0  13547-3 0  9991",
        "tle_line2": "2 38755  98.1585  42.1623 0001036 100.0661 260.0655 14.58588102704487"
      },
      "geometry": {
        "type": "Point",
        "coordinates": [
          -137.60861723116986,
          0.4242063489052024
        ]
      }
    },
    {
      "type": "Feature",
      "properties": {
        "norad_id": 39019,
        "name": "PLEIADES 1B",
        "group": "resource",
        "lat": 76.84143486643408,
        "lon": 12.197898947411444,
        "alt_km": 689.7710543592293,
        "timestamp": "2025-12-03T08:58:45.656035+00:00",
        "meta_object_name": "PLEIADES 1B",
        "meta_object_id": "2012-068A",
        "meta_epoch": "2025-12-03T03:40:34.141152",
        "meta_mean_motion": 14.58537231,
        "meta_eccentricity": 0.0001256,
        "meta_inclination": 98.1807,
        "meta_ra_of_asc_node": 49.9558,
        "meta_arg_of_pericenter": 87.7449,
        "meta_mean_anomaly": 272.3894,
        "meta_ephemeris_type": 0,
        "meta_classification_type": "U",
        "meta_norad_cat_id": 39019,
        "meta_element_set_no": 999,
        "meta_rev_at_epoch": 69227,
        "meta_bstar": 0.00013496,
        "meta_mean_motion_dot": 5.82e-06,
        "meta_mean_motion_ddot": 0,
        "tle_line1": "1 39019U 12068A   25337.15317293  .00000582  00000+0  13496-3 0  9990",
        "tle_line2": "2 39019  98.1807  49.9558 0001256  87.7449 272.3894 14.58537231692270"
      },
      "geometry": {
        "type": "Point",
        "coordinates": [
          12.197898947411444,
          76.84143486643408
        ]
      }
    },
    {
      "type": "Feature",
      "properties": {
        "norad_id": 39030,
        "name": "GOKTURK 2",
        "group": "resource",
        "lat": 82.06079735308606,
        "lon": 75.15202178594323,
        "alt_km": 636.2748283878209,
        "timestamp": "2025-12-03T08:58:45.656046+00:00",
        "meta_object_name": "GOKTURK 2",
        "meta_object_id": "2012-073A",
        "meta_epoch": "2025-12-03T03:40:50.499264",
        "meta_mean_motion": 14.75268987,
        "meta_eccentricity": 8e-05,
        "meta_inclination": 97.6899,
        "meta_ra_of_asc_node": 179.278,
        "meta_arg_of_pericenter": 94.9767,
        "meta_mean_anomaly": 265.1534,
        "meta_ephemeris_type": 0,
        "meta_classification_type": "U",
        "meta_norad_cat_id": 39030,
        "meta_element_set_no": 999,
        "meta_rev_at_epoch": 69560,
        "meta_bstar": 0.00013841,
        "meta_mean_motion_dot": 8.9e-06,
        "meta_mean_motion_ddot": 0,
        "tle_line1": "1 39030U 12073A   25337.15336226  .00000890  00000+0  13841-3 0  9992",
        "tle_line2": "2 39030  97.6899 179.2780 0000800  94.9767 265.1534 14.75268987695608"
      },
      "geometry": {
        "type": "Point",
        "coordinates": [
          75.15202178594323,
          82.06079735308606
        ]
      }
    },
    {
      "type": "Feature",
      "properties": {
        "norad_id": 39084,
        "name": "LANDSAT 8",
        "group": "resource",
        "lat": -60.887974610183036,
        "lon": 60.60864884937394,
        "alt_km": 710.277693973967,
        "timestamp": "2025-12-03T08:58:45.656056+00:00",
        "meta_object_name": "LANDSAT 8",
        "meta_object_id": "2013-008A",
        "meta_epoch": "2025-12-03T04:19:09.079680",
        "meta_mean_motion": 14.57124589,
        "meta_eccentricity": 0.0001068,
        "meta_inclination": 98.2084,
        "meta_ra_of_asc_node": 45.394,
        "meta_arg_of_pericenter": 88.6757,
        "meta_mean_anomaly": 271.4564,
        "meta_ephemeris_type": 0,
        "meta_classification_type": "U",
        "meta_norad_cat_id": 39084,
        "meta_element_set_no": 999,
        "meta_rev_at_epoch": 66935,
        "meta_bstar": 0.00014359,
        "meta_mean_motion_dot": 6.02e-06,
        "meta_mean_motion_ddot": 0,
        "tle_line1": "1 39084U 13008A   25337.17996620  .00000602  00000+0  14359-3 0  9998",
        "tle_line2": "2 39084  98.2084  45.3940 0001068  88.6757 271.4564 14.57124589669352"
      },
      "geometry": {
        "type": "Point",
        "coordinates": [
          60.60864884937394,
          -60.887974610183036
        ]
      }
    },
    {
      "type": "Feature",
      "properties": {
        "norad_id": 39086,
        "name": "SARAL",
        "group": "resource",
        "lat": 23.103348387685575,
        "lon": 157.7465656415426,
        "alt_km": 782.4986051767928,
        "timestamp": "2025-12-03T08:58:45.656067+00:00",
        "meta_object_name": "SARAL",
        "meta_object_id": "2013-009A",
        "meta_epoch": "2025-12-03T03:50:32.530272",
        "meta_mean_motion": 14.32751461,
        "meta_eccentricity": 0.0002617,
        "meta_inclination": 98.5507,
        "meta_ra_of_asc_node": 161.2154,
        "meta_arg_of_pericenter": 127.1282,
        "meta_mean_anomaly": 233.0142,
        "meta_ephemeris_type": 0,
        "meta_classification_type": "U",
        "meta_norad_cat_id": 39086,
        "meta_element_set_no": 999,
        "meta_rev_at_epoch": 66753,
        "meta_bstar": 8.7071e-05,
        "meta_mean_motion_dot": 1.93e-06,
        "meta_mean_motion_ddot": 0,
        "tle_line1": "1 39086U 13009A   25337.16009873  .00000193  00000+0  87071-4 0  9992",
        "tle_line2": "2 39086  98.5507 161.2154 0002617 127.1282 233.0142 14.32751461667537"
      },
      "geometry": {
        "type": "Point",
        "coordinates": [
          157.7465656415426,
          23.103348387685575
        ]
      }
    },
    {
      "type": "Feature",
      "properties": {
        "norad_id": 39150,
        "name": "GAOFEN-1",
        "group": "resource",
        "lat": 51.334068963794564,
        "lon": -121.76448032440102,
        "alt_km": 626.8038053719201,
        "timestamp": "2025-12-03T08:58:45.656077+00:00",
        "meta_object_name": "GAOFEN-1",
        "meta_object_id": "2013-018A",
        "meta_epoch": "2025-12-03T05:08:55.110336",
        "meta_mean_motion": 14.76505652,
        "meta_eccentricity": 0.0017633,
        "meta_inclination": 97.9339,
        "meta_ra_of_asc_node": 48.0417,
        "meta_arg_of_pericenter": 172.9401,
        "meta_mean_anomaly": 187.2061,
        "meta_ephemeris_type": 0,
        "meta_classification_type": "U",
        "meta_norad_cat_id": 39150,
        "meta_element_set_no": 999,
        "meta_rev_at_epoch": 67932,
        "meta_bstar": 0.00017153,
        "meta_mean_motion_dot": 1.147e-05,
        "meta_mean_motion_ddot": 0,
        "tle_line1": "1 39150U 13018A   25337.21452674  .00001147  00000+0  17153-3 0  9994",
        "tle_line2": "2 39150  97.9339  48.0417 0017633 172.9401 187.2061 14.76505652679321"
      },
      "geometry": {
        "type": "Point",
        "coordinates": [
          -121.76448032440102,
          51.334068963794564
        ]
      }
    }
  ]
}